NORAD_CAT_ID,OBJECT_NAME,OBJECT_TYPE,EPOCH,MEAN_MOTION,ECCENTRICITY,INCLINATION,RA_OF_ASC_NODE,ARG_OF_PERICENTER,MEAN_ANOMALY,BSTAR,MEAN_MOTION_DOT,MEAN_MOTION_DDOT,TLE_LINE0,TLE_LINE1,TLE_LINE2,SEMIMAJOR_AXIS,PERIOD,APOGEE,PERIGEE,DECAYED
51112.0,STARLINK-3374,PAYLOAD,2024-02-18 23:47:18,15.08854593,0.0001825,53.217,54.621,74.0384,286.0809,0.00036846,5.583e-05,0.0,0 STARLINK-3374,1 51112U 22005J   24049.99118287  .00005583  00000-0  36846-3 0  9994,2 51112  53.2170  54.6210 0001825  74.0384 286.0809 15.08854593116818,6917.836,95.437,540.963,538.438,0.0
51112.0,STARLINK-3374,PAYLOAD,2024-02-19 00:00:00,15.08851152,0.000171,53.2158,54.5793,84.6105,323.4898,0.0029948,0.00047712,0.0,0 STARLINK-3374,1 51112U 22005J   24050.00001157  .00047712  00000-0  29948-2 0  9999,2 51112  53.2158  54.5793 0001710  84.6105 323.4898 15.08851152  5864,6917.846,95.437,540.894,538.528,0.0
51112.0,STARLINK-3374,PAYLOAD,2024-02-19 09:19:36,15.08863837,0.0001939,53.2171,52.8367,75.4163,284.7044,0.00048593,7.459e-05,0.0,0 STARLINK-3374,1 51112U 22005J   24050.38861729  .00007459  00000-0  48593-3 0  9991,2 51112  53.2171  52.8367 0001939  75.4163 284.7044 15.08863837115768,6917.808,95.436,541.014,538.331,0.0
51112.0,STARLINK-3374,PAYLOAD,2024-02-20 04:24:14,15.08847959,0.0002307,53.217,49.2672,106.172,253.9526,1.1862e-05,-1e-06,0.0,0 STARLINK-3374,1 51112U 22005J   24051.18349628 -.00000100  00000-0  11862-4 0  9996,2 51112  53.2170  49.2672 0002307 106.1720 253.9526 15.08847959116993,6917.856,95.437,541.317,538.125,0.0
51112.0,STARLINK-3374,PAYLOAD,2024-02-20 05:59:37,15.08846188,0.0001971,53.2168,48.969,92.799,267.3228,-1.9331e-07,-2.91e-06,0.0,0 STARLINK-3374,1 51112U 22005J   24051.24973766 -.00000291  00000-0 -19331-6 0  9992,2 51112  53.2168  48.9690 0001971  92.7990 267.3228 15.08846188115890,6917.861,95.437,541.09,538.363,0.0
51112.0,STARLINK-3374,PAYLOAD,2024-02-20 17:07:19,15.08838081,0.0001859,53.2162,46.8872,90.2336,269.887,-7.8247e-05,-1.533e-05,0.0,0 STARLINK-3374,1 51112U 22005J   24051.71342168 -.00001533  00000-0 -78247-4 0  9999,2 51112  53.2162  46.8872 0001859  90.2336 269.8870 15.08838081117070,6917.886,95.438,541.037,538.465,0.0
51112.0,STARLINK-3374,PAYLOAD,2024-02-21 04:15:02,15.08827348,0.000195,53.2182,44.8069,91.4031,268.7184,-0.00017488,-3.069e-05,0.0,0 STARLINK-3374,1 51112U 22005J   24052.17710962 -.00003069  00000-0 -17488-3 0  9996,2 51112  53.2182  44.8069 0001950  91.4031 268.7184 15.08827348117143,6917.919,95.438,541.133,538.435,0.0
51112.0,STARLINK-3374,PAYLOAD,2024-02-21 05:50:25,15.08833484,0.0001988,53.2176,44.5071,97.9591,262.1627,-0.00015843,-2.808e-05,0.0,0 STARLINK-3374,1 51112U 22005J   24052.24334691 -.00002808  00000-0 -15843-3 0  9998,2 51112  53.2176  44.5071 0001988  97.9591 262.1627 15.08833484116045,6917.9,95.438,541.141,538.39,0.0
51112.0,STARLINK-3374,PAYLOAD,2024-02-21 16:58:07,15.08830388,0.0002198,53.2188,42.4252,89.3325,270.7919,-0.00012743,-2.315e-05,0.0,0 STARLINK-3374,1 51112U 22005J   24052.70703300 -.00002315  00000-0 -12743-3 0  9995,2 51112  53.2188  42.4252 0002198  89.3325 270.7919 15.08830388116117,6917.91,95.438,541.295,538.254,0.0
51112.0,STARLINK-3374,PAYLOAD,2024-02-22 08:51:59,15.08836214,0.000192,53.2174,39.4511,102.9409,257.1797,0.00011257,1.504e-05,0.0,0 STARLINK-3374,1 51112U 22005J   24053.36943579  .00001504  00000-0  11257-3 0  9998,2 51112  53.2174  39.4511 0001920 102.9409 257.1797 15.08836214117324,6917.892,95.438,541.085,538.429,0.0
51112.0,STARLINK-3374,PAYLOAD,2024-02-23 05:32:00,15.08844266,0.0001834,53.217,35.5857,95.8856,264.2345,0.00037551,5.694e-05,0.0,0 STARLINK-3374,1 51112U 22005J   24054.23055844  .00005694  00000-0  37551-3 0  9993,2 51112  53.2170  35.5857 0001834  95.8856 264.2345 15.08844266116345,6917.867,95.437,541.001,538.464,0.0
51112.0,STARLINK-3374,PAYLOAD,2024-02-23 15:04:18,15.08845345,0.0001713,53.217,33.8012,103.4091,256.7092,0.00031222,4.685e-05,0.0,0 STARLINK-3374,1 51112U 22005J   24054.62799716  .00004685  00000-0  31222-3 0  9997,2 51112  53.2170  33.8012 0001713 103.4091 256.7092 15.08845345117516,6917.864,95.437,540.914,538.544,0.0
51112.0,STARLINK-3374,PAYLOAD,2024-02-23 23:01:15,15.08836974,0.0001894,53.2187,32.3214,96.345,263.7758,0.00010831,1.436e-05,0.0,0 STARLINK-3374,1 51112U 22005J   24054.95920207  .00001436  00000-0  10831-3 0  9998,2 51112  53.2187  32.3214 0001894  96.3450 263.7758 15.08836974116458,6917.89,95.438,541.065,538.444,0.0
51112.0,STARLINK-3374,PAYLOAD,2024-02-24 03:47:24,15.08835827,0.0001922,53.2187,31.4294,95.9914,264.1297,0.00010697,1.415e-05,0.0,0 STARLINK-3374,1 51112U 22005J   24055.15792311  .00001415  00000-0  10697-3 0  9991,2 51112  53.2187  31.4294 0001922  95.9914 264.1297 15.08835827117593,6917.893,95.438,541.088,538.429,0.0
51112.0,STARLINK-3374,PAYLOAD,2024-02-24 08:33:33,15.08842259,0.0001968,53.2181,30.5335,103.3211,256.8,0.00012287,1.668e-05,0.0,0 STARLINK-3374,1 51112U 22005J   24055.35663919  .00001668  00000-0  12287-3 0  9991,2 51112  53.2181  30.5335 0001968 103.3211 256.8000 15.08842259116515,6917.873,95.437,541.1,538.377,0.0
51112.0,STARLINK-3374,PAYLOAD,2024-02-24 14:55:06,15.08837347,0.0001861,53.2181,29.347,99.2234,260.8968,6.2138e-05,7.01e-06,0.0,0 STARLINK-3374,1 51112U 22005J   24055.62160339  .00000701  00000-0  62138-4 0  9997,2 51112  53.2181  29.3470 0001861  99.2234 260.8968 15.08837347116555,6917.888,95.438,541.041,538.466,0.0
51112.0,STARLINK-3374,PAYLOAD,2024-02-25 05:13:34,15.08843234,0.0001621,53.2171,26.6652,87.9014,272.2164,2.0854e-05,4.4e-07,0.0,0 STARLINK-3374,1 51112U 22005J   24056.21775910  .00000044  00000-0  20854-4 0  9999,2 51112  53.2171  26.6652 0001621  87.9014 272.2164 15.08843234117750,6917.871,95.437,540.857,538.614,0.0
51112.0,STARLINK-3374,PAYLOAD,2024-02-25 14:45:52,15.08850649,0.0001663,53.2184,24.8819,89.4562,270.662,8.3521e-05,1.042e-05,0.0,0 STARLINK-3374,1 51112U 22005J   24056.61519580  .00001042  00000-0  83521-4 0  9991,2 51112  53.2184  24.8819 0001663  89.4562 270.6620 15.08850649116701,6917.848,95.437,540.863,538.562,0.0
51112.0,STARLINK-3374,PAYLOAD,2024-02-26 06:39:44,15.08847072,0.0001889,53.2186,21.9102,92.2231,267.8978,0.00018036,2.584e-05,0.0,0 STARLINK-3374,1 51112U 22005J   24057.27759740  .00002584  00000-0  18036-3 0  9998,2 51112  53.2186  21.9102 0001889  92.2231 267.8978 15.08847072117915,6917.859,95.437,541.031,538.417,0.0
51112.0,STARLINK-3374,PAYLOAD,2024-02-27 03:19:45,15.08839504,0.0001851,53.2184,18.0446,85.1366,274.9837,-7.5034e-06,-4.08e-06,0.0,0 STARLINK-3374,1 51112U 22005J   24058.13872207 -.00000408  00000-0 -75034-5 0  9996,2 51112  53.2184  18.0446 0001851  85.1366 274.9837 15.08839504118049,6917.882,95.438,541.027,538.466,0.0
51112.0,STARLINK-3374,PAYLOAD,2024-02-27 14:27:27,15.08839889,0.0001736,53.2184,15.962,91.4505,268.6686,5.9235e-06,-1.94e-06,0.0,0 STARLINK-3374,1 51112U 22005J   24058.60240149 -.00000194  00000-0  59235-5 0  9998,2 51112  53.2184  15.9620 0001736  91.4505 268.6686 15.08839889117009,6917.881,95.438,540.947,538.545,0.0
51112.0,STARLINK-3374,PAYLOAD,2024-02-27 20:49:00,15.08834643,0.0001659,53.2171,14.7719,94.4012,265.7169,-1.4787e-06,-3.12e-06,0.0,0 STARLINK-3374,1 51112U 22005J   24058.86736401 -.00000312  00000-0 -14787-5 0  9993,2 51112  53.2171  14.7719 0001659  94.4012 265.7169 15.08834643117042,6917.897,95.438,540.909,538.614,0.0
51112.0,STARLINK-3374,PAYLOAD,2024-02-28 06:21:18,15.08849209,0.0001608,53.217,12.9889,92.1075,268.0101,0.00011634,1.564e-05,0.0,0 STARLINK-3374,1 51112U 22005J   24059.26479589  .00001564  00000-0  11634-3 0  9993,2 51112  53.2170  12.9889 0001608  92.1075 268.0101 15.08849209118213,6917.852,95.437,540.83,538.605,0.0
51112.0,STARLINK-3374,PAYLOAD,2024-02-28 14:18:14,15.0883833,0.0001721,53.2194,11.4972,102.6997,257.4188,-2.8423e-05,-7.4e-06,0.0,0 STARLINK-3374,1 51112U 22005J   24059.59600107 -.00000740  00000-0 -28423-4 0  9993,2 51112  53.2194  11.4972 0001721 102.6997 257.4188 15.08838330117154,6917.885,95.438,540.941,538.56,0.0
51112.0,STARLINK-3374,PAYLOAD,2024-02-29 06:12:05,15.08843182,0.0001713,53.2197,8.5238,103.1407,256.9776,7.2547e-05,8.67e-06,0.0,0 STARLINK-3374,1 51112U 22005J   24060.25840184  .00000867  00000-0  72547-4 0  9993,2 51112  53.2197   8.5238 0001713 103.1407 256.9776 15.08843182117251,6917.871,95.437,540.921,538.551,0.0
51112.0,STARLINK-3374,PAYLOAD,2024-03-01 02:52:07,15.08832502,0.0001251,53.2188,4.661,103.1522,256.961,0.00020752,3.016e-05,0.0,0 STARLINK-3374,1 51112U 22005J   24061.11952754  .00003016  00000-0  20752-3 0  9995,2 51112  53.2188   4.6610 0001251 103.1522 256.9610 15.08832502118495,6917.903,95.438,540.634,538.903,0.0
51112.0,STARLINK-3374,PAYLOAD,2024-03-01 06:02:52,15.08847386,0.0001539,53.2182,4.0657,97.1216,262.9951,4.2412e-05,3.87e-06,0.0,0 STARLINK-3374,1 51112U 22005J   24061.25200145  .00000387  00000-0  42412-4 0  9996,2 51112  53.2182   4.0657 0001539  97.1216 262.9951 15.08847386118519,6917.858,95.437,540.787,538.658,0.0
51112.0,STARLINK-3374,PAYLOAD,2024-03-02 01:07:29,15.0886362,0.0001759,53.2192,0.4959,95.3275,264.7918,-8.8258e-05,-1.693e-05,0.0,0 STARLINK-3374,1 51112U 22005J   24062.04687018 -.00001693  00000-0 -88258-4 0  9993,2 51112  53.2192   0.4959 0001759  95.3275 264.7918 15.08863620118639,6917.808,95.436,540.89,538.456,0.0
51112.0,STARLINK-3374,PAYLOAD,2024-03-03 02:33:41,15.08838963,0.0001424,53.219,355.7432,87.2762,272.8393,2.6294e-05,1.31e-06,0.0,0 STARLINK-3374,1 51112U 22005J   24063.10672552  .00000131  00000-0  26294-4 0  9994,2 51112  53.2190 355.7432 0001424  87.2762 272.8393 15.08838963118795,6917.884,95.438,540.734,538.763,0.0
51112.0,STARLINK-3374,PAYLOAD,2024-03-04 05:35:13,15.08852608,0.0002216,53.2191,350.6858,132.9225,227.1954,0.00015841,2.235e-05,0.0,0 STARLINK-3374,1 51112U 22005J   24064.23279062  .00002235  00000-0  15841-3 0  9990,2 51112  53.2191 350.6858 0002216 132.9225 227.1954 15.08852608118961,6917.842,95.437,541.24,538.174,0.0
